[
    {
        "OBJECT_NAME": "STARLINK-30480",
        "OBJECT_ID": "2023-158U",
        "EPOCH": "2023-11-15T02:49:51.849408",
        "MEAN_MOTION": 15.46692336,
        "ECCENTRICITY": 0.0001898,
        "INCLINATION": 43.0001,
        "RA_OF_ASC_NODE": 309.3108,
        "ARG_OF_PERICENTER": 230.8898,
        "MEAN_ANOMALY": 129.1792,
        "EPHEMERIS_TYPE": 0,
        "CLASSIFICATION_TYPE": "U",
        "NORAD_CAT_ID": 58069,
        "ELEMENT_SET_NO": 999,
        "REV_AT_EPOCH": 627,
        "BSTAR": -0.014382,
        "MEAN_MOTION_DOT": -0.00683814,
        "MEAN_MOTION_DDOT": 0
    },
    {
        "OBJECT_NAME": "STARLINK-30532",
        "OBJECT_ID": "2023-158V",
        "EPOCH": "2023-11-15T04:00:00.999936",
        "MEAN_MOTION": 15.38998645,
        "ECCENTRICITY": 0.0001243,
        "INCLINATION": 42.9994,
        "RA_OF_ASC_NODE": 309.1093,
        "ARG_OF_PERICENTER": 259.8506,
        "MEAN_ANOMALY": 339.0148,
        "EPHEMERIS_TYPE": 0,
        "CLASSIFICATION_TYPE": "U",
        "NORAD_CAT_ID": 58070,
        "ELEMENT_SET_NO": 999,
        "REV_AT_EPOCH": 628,
        "BSTAR": -0.060498,
        "MEAN_MOTION_DOT": -0.02148992,
        "MEAN_MOTION_DDOT": 0
    },
    {
        "OBJECT_NAME": "STARLINK-30513",
        "OBJECT_ID": "2023-158W",
        "EPOCH": "2023-11-13T10:00:00.999936",
        "MEAN_MOTION": 15.6863169,
        "ECCENTRICITY": 0.0002133,
        "INCLINATION": 42.9999,
        "RA_OF_ASC_NODE": 318.4796,
        "ARG_OF_PERICENTER": 185.5543,
        "MEAN_ANOMALY": 345.8146,
        "EPHEMERIS_TYPE": 0,
        "CLASSIFICATION_TYPE": "U",
        "NORAD_CAT_ID": 58071,
        "ELEMENT_SET_NO": 999,
        "REV_AT_EPOCH": 610,
        "BSTAR": 0.0036598,
        "MEAN_MOTION_DOT": 0.00452266,
        "MEAN_MOTION_DDOT": 0
    },
    {
        "OBJECT_NAME": "STARLINK-30506",
        "OBJECT_ID": "2023-158X",
        "EPOCH": "2023-11-15T04:00:00.999936",
        "MEAN_MOTION": 15.39906961,
        "ECCENTRICITY": 0.00013,
        "INCLINATION": 43,
        "RA_OF_ASC_NODE": 309.0893,
        "ARG_OF_PERICENTER": 262.0313,
        "MEAN_ANOMALY": 344.8097,
        "EPHEMERIS_TYPE": 0,
        "CLASSIFICATION_TYPE": "U",
        "NORAD_CAT_ID": 58072,
        "ELEMENT_SET_NO": 999,
        "REV_AT_EPOCH": 612,
        "BSTAR": -0.058737,
        "MEAN_MOTION_DOT": -0.0215021,
        "MEAN_MOTION_DDOT": 0
    },
    {
        "OBJECT_NAME": "STARLINK-30604",
        "OBJECT_ID": "2023-160A",
        "EPOCH": "2023-11-14T22:00:00.999936",
        "MEAN_MOTION": 15.35445617,
        "ECCENTRICITY": 0.0001318,
        "INCLINATION": 42.9995,
        "RA_OF_ASC_NODE": 4.0167,
        "ARG_OF_PERICENTER": 271.6854,
        "MEAN_ANOMALY": 195.8249,
        "EPHEMERIS_TYPE": 0,
        "CLASSIFICATION_TYPE": "U",
        "NORAD_CAT_ID": 58075,
        "ELEMENT_SET_NO": 999,
        "REV_AT_EPOCH": 562,
        "BSTAR": -0.067677,
        "MEAN_MOTION_DOT": -0.0214114,
        "MEAN_MOTION_DDOT": 0
    },
    {
        "OBJECT_NAME": "STARLINK-30500",
        "OBJECT_ID": "2023-160B",
        "EPOCH": "2023-11-15T04:00:00.999936",
        "MEAN_MOTION": 15.45702172,
        "ECCENTRICITY": 9.37e-5,
        "INCLINATION": 42.9992,
        "RA_OF_ASC_NODE": 2.3941,
        "ARG_OF_PERICENTER": 268.9492,
        "MEAN_ANOMALY": 222.8697,
        "EPHEMERIS_TYPE": 0,
        "CLASSIFICATION_TYPE": "U",
        "NORAD_CAT_ID": 58076,
        "ELEMENT_SET_NO": 999,
        "REV_AT_EPOCH": 560,
        "BSTAR": -0.047874,
        "MEAN_MOTION_DOT": -0.02099099,
        "MEAN_MOTION_DDOT": 0
    },
    {
        "OBJECT_NAME": "STARLINK-30613",
        "OBJECT_ID": "2023-160C",
        "EPOCH": "2023-11-14T22:00:00.999936",
        "MEAN_MOTION": 15.36828739,
        "ECCENTRICITY": 0.0001286,
        "INCLINATION": 42.9995,
        "RA_OF_ASC_NODE": 3.9797,
        "ARG_OF_PERICENTER": 270.619,
        "MEAN_ANOMALY": 212.1064,
        "EPHEMERIS_TYPE": 0,
        "CLASSIFICATION_TYPE": "U",
        "NORAD_CAT_ID": 58077,
        "ELEMENT_SET_NO": 999,
        "REV_AT_EPOCH": 531,
        "BSTAR": -0.064767,
        "MEAN_MOTION_DOT": -0.02142993,
        "MEAN_MOTION_DDOT": 0
    },
    {
        "OBJECT_NAME": "STARLINK-30597",
        "OBJECT_ID": "2023-160D",
        "EPOCH": "2023-11-15T03:24:52.519392",
        "MEAN_MOTION": 15.47804028,
        "ECCENTRICITY": 0.0002626,
        "INCLINATION": 42.9989,
        "RA_OF_ASC_NODE": 2.5239,
        "ARG_OF_PERICENTER": 254.529,
        "MEAN_ANOMALY": 105.5279,
        "EPHEMERIS_TYPE": 0,
        "CLASSIFICATION_TYPE": "U",
        "NORAD_CAT_ID": 58078,
        "ELEMENT_SET_NO": 999,
        "REV_AT_EPOCH": 565,
        "BSTAR": -0.014286,
        "MEAN_MOTION_DOT": -0.00704692,
        "MEAN_MOTION_DDOT": 0
    },
    {
        "OBJECT_NAME": "STARLINK-30598",
        "OBJECT_ID": "2023-160E",
        "EPOCH": "2023-11-14T22:00:00.999936",
        "MEAN_MOTION": 15.37732343,
        "ECCENTRICITY": 0.0001375,
        "INCLINATION": 42.9994,
        "RA_OF_ASC_NODE": 3.9569,
        "ARG_OF_PERICENTER": 275.6719,
        "MEAN_ANOMALY": 216.6149,
        "EPHEMERIS_TYPE": 0,
        "CLASSIFICATION_TYPE": "U",
        "NORAD_CAT_ID": 58079,
        "ELEMENT_SET_NO": 999,
        "REV_AT_EPOCH": 562,
        "BSTAR": -0.062727,
        "MEAN_MOTION_DOT": -0.02138338,
        "MEAN_MOTION_DDOT": 0
    },
    {
        "OBJECT_NAME": "STARLINK-30603",
        "OBJECT_ID": "2023-160F",
        "EPOCH": "2023-11-14T22:00:00.999936",
        "MEAN_MOTION": 15.38190103,
        "ECCENTRICITY": 0.0001306,
        "INCLINATION": 42.9995,
        "RA_OF_ASC_NODE": 3.9463,
        "ARG_OF_PERICENTER": 270.2958,
        "MEAN_ANOMALY": 226.5255,
        "EPHEMERIS_TYPE": 0,
        "CLASSIFICATION_TYPE": "U",
        "NORAD_CAT_ID": 58080,
        "ELEMENT_SET_NO": 999,
        "REV_AT_EPOCH": 562,
        "BSTAR": -0.062038,
        "MEAN_MOTION_DOT": -0.02146024,
        "MEAN_MOTION_DDOT": 0
    },
    {
        "OBJECT_NAME": "STARLINK-30602",
        "OBJECT_ID": "2023-160G",
        "EPOCH": "2023-11-15T04:00:00.999936",
        "MEAN_MOTION": 15.44004804,
        "ECCENTRICITY": 0.0001329,
        "INCLINATION": 42.9989,
        "RA_OF_ASC_NODE": 2.451,
        "ARG_OF_PERICENTER": 260.3861,
        "MEAN_ANOMALY": 207.5843,
        "EPHEMERIS_TYPE": 0,
        "CLASSIFICATION_TYPE": "U",
        "NORAD_CAT_ID": 58081,
        "ELEMENT_SET_NO": 999,
        "REV_AT_EPOCH": 565,
        "BSTAR": 0.0020339,
        "MEAN_MOTION_DOT": 0.00095808,
        "MEAN_MOTION_DDOT": 0
    },
    {
        "OBJECT_NAME": "STARLINK-30610",
        "OBJECT_ID": "2023-160H",
        "EPOCH": "2023-11-14T22:00:00.999936",
        "MEAN_MOTION": 15.39119896,
        "ECCENTRICITY": 0.0001236,
        "INCLINATION": 42.9995,
        "RA_OF_ASC_NODE": 3.9262,
        "ARG_OF_PERICENTER": 269.3967,
        "MEAN_ANOMALY": 235.5932,
        "EPHEMERIS_TYPE": 0,
        "CLASSIFICATION_TYPE": "U",
        "NORAD_CAT_ID": 58082,
        "ELEMENT_SET_NO": 999,
        "REV_AT_EPOCH": 567,
        "BSTAR": -0.060217,
        "MEAN_MOTION_DOT": -0.02147748,
        "MEAN_MOTION_DDOT": 0
    },
    {
        "OBJECT_NAME": "STARLINK-30551",
        "OBJECT_ID": "2023-160J",
        "EPOCH": "2023-11-14T22:00:00.999936",
        "MEAN_MOTION": 15.400265,
        "ECCENTRICITY": 0.0001165,
        "INCLINATION": 42.9995,
        "RA_OF_ASC_NODE": 3.9069,
        "ARG_OF_PERICENTER": 272.0401,
        "MEAN_ANOMALY": 240.8641,
        "EPHEMERIS_TYPE": 0,
        "CLASSIFICATION_TYPE": "U",
        "NORAD_CAT_ID": 58083,
        "ELEMENT_SET_NO": 999,
        "REV_AT_EPOCH": 567,
        "BSTAR": -0.058444,
        "MEAN_MOTION_DOT": -0.02148169,
        "MEAN_MOTION_DDOT": 0
    }
]
