STARLINK-30480          
1 58069U 23158U   23319.11796122 -.00683814  00000+0 -14382-1 0  9994
2 58069  43.0001 309.3108 0001898 230.8898 129.1792 15.46692336  6277
STARLINK-30532          
1 58070U 23158V   23319.16667824 -.02148992  00000+0 -60498-1 0  9991
2 58070  42.9994 309.1093 0001243 259.8506 339.0148 15.38998645  6281
STARLINK-30513          
1 58071U 23158W   23317.41667824  .00452266  00000+0  36598-2 0  9991
2 58071  42.9999 318.4796 0002133 185.5543 345.8146 15.68631690  6106
STARLINK-30506          
1 58072U 23158X   23319.16667824 -.02150210  00000+0 -58737-1 0  9992
2 58072  43.0000 309.0893 0001300 262.0313 344.8097 15.39906961  6127
STARLINK-30604          
1 58075U 23160A   23318.91667824 -.02141140  00000+0 -67677-1 0  9995
2 58075  42.9995   4.0167 0001318 271.6854 195.8249 15.35445617  5621
STARLINK-30500          
1 58076U 23160B   23319.16667824 -.02099099  00000+0 -47874-1 0  9996
2 58076  42.9992   2.3941 0000937 268.9492 222.8697 15.45702172  5602
STARLINK-30613          
1 58077U 23160C   23318.91667824 -.02142993  00000+0 -64767-1 0  9991
2 58077  42.9995   3.9797 0001286 270.6190 212.1064 15.36828739  5311
STARLINK-30597          
1 58078U 23160D   23319.14227453 -.00704692  00000+0 -14286-1 0  9997
2 58078  42.9989   2.5239 0002626 254.5290 105.5279 15.47804028  5659
STARLINK-30598          
1 58079U 23160E   23318.91667824 -.02138338  00000+0 -62727-1 0  9995
2 58079  42.9994   3.9569 0001375 275.6719 216.6149 15.37732343  5623
STARLINK-30603          
1 58080U 23160F   23318.91667824 -.02146024  00000+0 -62038-1 0  9993
2 58080  42.9995   3.9463 0001306 270.2958 226.5255 15.38190103  5620
STARLINK-30602          
1 58081U 23160G   23319.16667824  .00095808  00000+0  20339-2 0  9990
2 58081  42.9989   2.4510 0001329 260.3861 207.5843 15.44004804  5653
STARLINK-30610          
1 58082U 23160H   23318.91667824 -.02147748  00000+0 -60217-1 0  9996
2 58082  42.9995   3.9262 0001236 269.3967 235.5932 15.39119896  5678
STARLINK-30551          
1 58083U 23160J   23318.91667824 -.02148169  00000+0 -58444-1 0  9994
2 58083  42.9995   3.9069 0001165 272.0401 240.8641 15.40026500  5676
